COSMOS 2600             
1 67674U 26023A   26064.28943245  .00080559  00000+0  37199-3 0  9996
2 67674  96.6431 140.0718 0002153 354.8749   5.2500 15.83310124  4355
2026-023B               
1 67675U 26023B   26063.39805439  .00017809  00000+0  75835-3 0  9997
2 67675  96.6368 136.9588 0019232 149.8660 210.3690 15.22849981  4051
2026-023C               
1 67676U 26023C   26063.46244054  .00018268  00000+0  77493-3 0  9998
2 67676  96.6403 137.0391 0020297 140.0758 220.1978 15.22954337  4229
2026-023D               
1 67677U 26023D   26064.31918387  .00013188  00000+0  56305-3 0  9996
2 67677  96.6430 137.7834 0020587 142.0223 218.2472 15.22795335  4183
2026-023E               
1 67678U 26023E   26064.31704421  .00015528  00000+0  65899-3 0  9997
2 67678  96.6323 137.7632 0020339 141.5152 218.7542 15.22969744  4181
2026-023F               
1 67679U 26023F   26064.31445979  .00015346  00000+0  64770-3 0  9993
2 67679  96.6330 140.2634 0022177 136.4297 223.8698 15.23121087  4175
2026-023G               
1 67680U 26023G   26064.31518341  .00015857  00000+0  66925-3 0  9990
2 67680  96.6259 140.2449 0023688 133.0095 227.3134 15.23081986  4175
2026-023H               
1 67681U 26023H   26064.31533440  .00013538  00000+0  57311-3 0  9991
2 67681  96.6403 140.2775 0023804 132.4352 227.8905 15.23009611  4174
2026-023J               
1 67682U 26023J   26064.31413205  .00014721  00000+0  62090-3 0  9993
2 67682  96.6358 140.2814 0023896 129.2597 231.0767 15.23114247  4179
ISS OBJECT XZ           
1 67683U 98067XZ  26063.31738248  .00052289  00000+0  87421-3 0  9993
2 67683  51.6304  98.5346 0009491 167.7937 192.3284 15.51337660  3952
GXIBA-1                 
1 67684U 98067YA  26064.26286032  .00079219  00000+0  12155-2 0  9991
2 67684  51.6300  93.5981 0010907 161.0219 199.1180 15.53528738  4101
CORAL                   
1 67685U 98067YB  26064.08693506  .00047663  00000+0  78666-3 0  9998
2 67685  51.6309  94.6739 0011365 166.7274 193.4017 15.51717466  4074
