CCSDS_OMM_VERS = 2.0
CREATION_DATE  = 
ORIGINATOR     = 

OBJECT_NAME    = COSMOS 2600
OBJECT_ID      = 2026-023A
CENTER_NAME    = EARTH
REF_FRAME      = TEME
TIME_SYSTEM    = UTC
MEAN_ELEMENT_THEORY = SGP/SGP4

EPOCH          = 2026-03-05T06:56:46.963680
MEAN_MOTION    = 15.83310124
ECCENTRICITY   = .00021534
INCLINATION    = 96.6431
RA_OF_ASC_NODE = 140.0718
ARG_OF_PERICENTER = 354.8749
MEAN_ANOMALY   = 5.2500

EPHEMERIS_TYPE = 0
CLASSIFICATION_TYPE = U
NORAD_CAT_ID   = 67674
ELEMENT_SET_NO = 999
REV_AT_EPOCH   = 435
BSTAR          = .37199174E-3
MEAN_MOTION_DOT = .80559E-3
MEAN_MOTION_DDOT = 0

CCSDS_OMM_VERS = 2.0
CREATION_DATE  = 
ORIGINATOR     = 

OBJECT_NAME    = 2026-023B
OBJECT_ID      = 2026-023B
CENTER_NAME    = EARTH
REF_FRAME      = TEME
TIME_SYSTEM    = UTC
MEAN_ELEMENT_THEORY = SGP/SGP4

EPOCH          = 2026-03-04T09:33:11.899296
MEAN_MOTION    = 15.22849981
ECCENTRICITY   = .00192324
INCLINATION    = 96.6368
RA_OF_ASC_NODE = 136.9588
ARG_OF_PERICENTER = 149.8660
MEAN_ANOMALY   = 210.3690

EPHEMERIS_TYPE = 0
CLASSIFICATION_TYPE = U
NORAD_CAT_ID   = 67675
ELEMENT_SET_NO = 999
REV_AT_EPOCH   = 405
BSTAR          = .75835034E-3
MEAN_MOTION_DOT = .17809E-3
MEAN_MOTION_DDOT = 0

CCSDS_OMM_VERS = 2.0
CREATION_DATE  = 
ORIGINATOR     = 

OBJECT_NAME    = 2026-023C
OBJECT_ID      = 2026-023C
CENTER_NAME    = EARTH
REF_FRAME      = TEME
TIME_SYSTEM    = UTC
MEAN_ELEMENT_THEORY = SGP/SGP4

EPOCH          = 2026-03-04T11:05:54.862656
MEAN_MOTION    = 15.22954337
ECCENTRICITY   = .00202975
INCLINATION    = 96.6403
RA_OF_ASC_NODE = 137.0391
ARG_OF_PERICENTER = 140.0758
MEAN_ANOMALY   = 220.1978

EPHEMERIS_TYPE = 0
CLASSIFICATION_TYPE = U
NORAD_CAT_ID   = 67676
ELEMENT_SET_NO = 999
REV_AT_EPOCH   = 422
BSTAR          = .77492623E-3
MEAN_MOTION_DOT = .18268E-3
MEAN_MOTION_DDOT = 0

CCSDS_OMM_VERS = 2.0
CREATION_DATE  = 
ORIGINATOR     = 

OBJECT_NAME    = 2026-023D
OBJECT_ID      = 2026-023D
CENTER_NAME    = EARTH
REF_FRAME      = TEME
TIME_SYSTEM    = UTC
MEAN_ELEMENT_THEORY = SGP/SGP4

EPOCH          = 2026-03-05T07:39:37.486368
MEAN_MOTION    = 15.22795335
ECCENTRICITY   = .00205873
INCLINATION    = 96.6430
RA_OF_ASC_NODE = 137.7834
ARG_OF_PERICENTER = 142.0223
MEAN_ANOMALY   = 218.2472

EPHEMERIS_TYPE = 0
CLASSIFICATION_TYPE = U
NORAD_CAT_ID   = 67677
ELEMENT_SET_NO = 999
REV_AT_EPOCH   = 418
BSTAR          = .56304628E-3
MEAN_MOTION_DOT = .13188E-3
MEAN_MOTION_DDOT = 0

CCSDS_OMM_VERS = 2.0
CREATION_DATE  = 
ORIGINATOR     = 

OBJECT_NAME    = 2026-023E
OBJECT_ID      = 2026-023E
CENTER_NAME    = EARTH
REF_FRAME      = TEME
TIME_SYSTEM    = UTC
MEAN_ELEMENT_THEORY = SGP/SGP4

EPOCH          = 2026-03-05T07:36:32.619744
MEAN_MOTION    = 15.22969744
ECCENTRICITY   = .00203392
INCLINATION    = 96.6323
RA_OF_ASC_NODE = 137.7632
ARG_OF_PERICENTER = 141.5152
MEAN_ANOMALY   = 218.7542

EPHEMERIS_TYPE = 0
CLASSIFICATION_TYPE = U
NORAD_CAT_ID   = 67678
ELEMENT_SET_NO = 999
REV_AT_EPOCH   = 418
BSTAR          = .65899128E-3
MEAN_MOTION_DOT = .15528E-3
MEAN_MOTION_DDOT = 0

CCSDS_OMM_VERS = 2.0
CREATION_DATE  = 
ORIGINATOR     = 

OBJECT_NAME    = 2026-023F
OBJECT_ID      = 2026-023F
CENTER_NAME    = EARTH
REF_FRAME      = TEME
TIME_SYSTEM    = UTC
MEAN_ELEMENT_THEORY = SGP/SGP4

EPOCH          = 2026-03-05T07:32:49.325856
MEAN_MOTION    = 15.23121087
ECCENTRICITY   = .00221773
INCLINATION    = 96.6330
RA_OF_ASC_NODE = 140.2634
ARG_OF_PERICENTER = 136.4297
MEAN_ANOMALY   = 223.8698

EPHEMERIS_TYPE = 0
CLASSIFICATION_TYPE = U
NORAD_CAT_ID   = 67679
ELEMENT_SET_NO = 999
REV_AT_EPOCH   = 417
BSTAR          = .64770416E-3
MEAN_MOTION_DOT = .15346E-3
MEAN_MOTION_DDOT = 0

CCSDS_OMM_VERS = 2.0
CREATION_DATE  = 
ORIGINATOR     = 

OBJECT_NAME    = 2026-023G
OBJECT_ID      = 2026-023G
CENTER_NAME    = EARTH
REF_FRAME      = TEME
TIME_SYSTEM    = UTC
MEAN_ELEMENT_THEORY = SGP/SGP4

EPOCH          = 2026-03-05T07:33:51.846624
MEAN_MOTION    = 15.23081986
ECCENTRICITY   = .00236886
INCLINATION    = 96.6259
RA_OF_ASC_NODE = 140.2449
ARG_OF_PERICENTER = 133.0095
MEAN_ANOMALY   = 227.3134

EPHEMERIS_TYPE = 0
CLASSIFICATION_TYPE = U
NORAD_CAT_ID   = 67680
ELEMENT_SET_NO = 999
REV_AT_EPOCH   = 417
BSTAR          = .66924944E-3
MEAN_MOTION_DOT = .15857E-3
MEAN_MOTION_DDOT = 0

CCSDS_OMM_VERS = 2.0
CREATION_DATE  = 
ORIGINATOR     = 

OBJECT_NAME    = 2026-023H
OBJECT_ID      = 2026-023H
CENTER_NAME    = EARTH
REF_FRAME      = TEME
TIME_SYSTEM    = UTC
MEAN_ELEMENT_THEORY = SGP/SGP4

EPOCH          = 2026-03-05T07:34:04.892160
MEAN_MOTION    = 15.23009611
ECCENTRICITY   = .00238043
INCLINATION    = 96.6403
RA_OF_ASC_NODE = 140.2775
ARG_OF_PERICENTER = 132.4352
MEAN_ANOMALY   = 227.8905

EPHEMERIS_TYPE = 0
CLASSIFICATION_TYPE = U
NORAD_CAT_ID   = 67681
ELEMENT_SET_NO = 999
REV_AT_EPOCH   = 417
BSTAR          = .57311455E-3
MEAN_MOTION_DOT = .13538E-3
MEAN_MOTION_DDOT = 0

CCSDS_OMM_VERS = 2.0
CREATION_DATE  = 
ORIGINATOR     = 

OBJECT_NAME    = 2026-023J
OBJECT_ID      = 2026-023J
CENTER_NAME    = EARTH
REF_FRAME      = TEME
TIME_SYSTEM    = UTC
MEAN_ELEMENT_THEORY = SGP/SGP4

EPOCH          = 2026-03-05T07:32:21.009120
MEAN_MOTION    = 15.23114247
ECCENTRICITY   = .00238965
INCLINATION    = 96.6358
RA_OF_ASC_NODE = 140.2814
ARG_OF_PERICENTER = 129.2597
MEAN_ANOMALY   = 231.0767

EPHEMERIS_TYPE = 0
CLASSIFICATION_TYPE = U
NORAD_CAT_ID   = 67682
ELEMENT_SET_NO = 999
REV_AT_EPOCH   = 417
BSTAR          = .62089867E-3
MEAN_MOTION_DOT = .14721E-3
MEAN_MOTION_DDOT = 0

CCSDS_OMM_VERS = 2.0
CREATION_DATE  = 
ORIGINATOR     = 

OBJECT_NAME    = ISS OBJECT XZ
OBJECT_ID      = 1998-067XZ
CENTER_NAME    = EARTH
REF_FRAME      = TEME
TIME_SYSTEM    = UTC
MEAN_ELEMENT_THEORY = SGP/SGP4

EPOCH          = 2026-03-04T07:37:01.846272
MEAN_MOTION    = 15.51337660
ECCENTRICITY   = .00094914
INCLINATION    = 51.6304
RA_OF_ASC_NODE = 98.5346
ARG_OF_PERICENTER = 167.7937
MEAN_ANOMALY   = 192.3284

EPHEMERIS_TYPE = 0
CLASSIFICATION_TYPE = U
NORAD_CAT_ID   = 67683
ELEMENT_SET_NO = 999
REV_AT_EPOCH   = 395
BSTAR          = .87420501E-3
MEAN_MOTION_DOT = .52289E-3
MEAN_MOTION_DDOT = 0

CCSDS_OMM_VERS = 2.0
CREATION_DATE  = 
ORIGINATOR     = 

OBJECT_NAME    = GXIBA-1
OBJECT_ID      = 1998-067YA
CENTER_NAME    = EARTH
REF_FRAME      = TEME
TIME_SYSTEM    = UTC
MEAN_ELEMENT_THEORY = SGP/SGP4

EPOCH          = 2026-03-05T06:18:31.131648
MEAN_MOTION    = 15.53528738
ECCENTRICITY   = .00109077
INCLINATION    = 51.6300
RA_OF_ASC_NODE = 93.5981
ARG_OF_PERICENTER = 161.0219
MEAN_ANOMALY   = 199.1180

EPHEMERIS_TYPE = 0
CLASSIFICATION_TYPE = U
NORAD_CAT_ID   = 67684
ELEMENT_SET_NO = 999
REV_AT_EPOCH   = 410
BSTAR          = .12155444E-2
MEAN_MOTION_DOT = .79219E-3
MEAN_MOTION_DDOT = 0

CCSDS_OMM_VERS = 2.0
CREATION_DATE  = 
ORIGINATOR     = 

OBJECT_NAME    = CORAL
OBJECT_ID      = 1998-067YB
CENTER_NAME    = EARTH
REF_FRAME      = TEME
TIME_SYSTEM    = UTC
MEAN_ELEMENT_THEORY = SGP/SGP4

EPOCH          = 2026-03-05T02:05:11.189184
MEAN_MOTION    = 15.51717466
ECCENTRICITY   = .00113652
INCLINATION    = 51.6309
RA_OF_ASC_NODE = 94.6739
ARG_OF_PERICENTER = 166.7274
MEAN_ANOMALY   = 193.4017

EPHEMERIS_TYPE = 0
CLASSIFICATION_TYPE = U
NORAD_CAT_ID   = 67685
ELEMENT_SET_NO = 999
REV_AT_EPOCH   = 407
BSTAR          = .78666166E-3
MEAN_MOTION_DOT = .47663E-3
MEAN_MOTION_DDOT = 0

